NORAD_CAT_ID,OBJECT_NAME,OBJECT_TYPE,EPOCH,MEAN_MOTION,ECCENTRICITY,INCLINATION,RA_OF_ASC_NODE,ARG_OF_PERICENTER,MEAN_ANOMALY,BSTAR,MEAN_MOTION_DOT,MEAN_MOTION_DDOT,TLE_LINE0,TLE_LINE1,TLE_LINE2,SEMIMAJOR_AXIS,PERIOD,APOGEE,PERIGEE,DECAYED
53388.0,STARLINK-4522,PAYLOAD,2024-02-15 07:24:44,15.08832295,0.0001618,53.2154,266.1777,96.7073,263.4103,-5.1553e-05,-1.108e-05,0.0,0 STARLINK-4522,1 53388U 22097A   24046.30885131 -.00001108  00000-0 -51553-4 0  9997,2 53388  53.2154 266.1777 0001618  96.7073 263.4103 15.08832295 85110,6917.904,95.438,540.888,538.65,0.0
53388.0,STARLINK-4522,PAYLOAD,2024-02-15 21:43:13,15.08837537,0.0001387,53.2178,263.5024,100.4596,259.6553,-7.3388e-05,-1.456e-05,0.0,0 STARLINK-4522,1 53388U 22097A   24046.90501686 -.00001456  00000-0 -73388-4 0  9999,2 53388  53.2178 263.5024 0001387 100.4596 259.6553 15.08837537 85208,6917.888,95.438,540.712,538.793,0.0
53388.0,STARLINK-4522,PAYLOAD,2024-02-16 07:15:32,15.08843007,0.0001384,53.2175,261.717,92.3589,267.7561,-9.4355e-05,-1.789e-05,0.0,0 STARLINK-4522,1 53388U 22097A   24047.30245385 -.00001789  00000-0 -94355-4 0  9991,2 53388  53.2175 261.7170 0001384  92.3589 267.7561 15.08843007 85269,6917.871,95.437,540.694,538.779,0.0
53388.0,STARLINK-4522,PAYLOAD,2024-02-16 19:58:37,15.08834103,0.0001454,53.2175,259.3381,93.4342,266.6816,8.1763e-05,1.013e-05,0.0,0 STARLINK-4522,1 53388U 22097A   24047.83237950  .00001013  00000-0  81763-4 0  9995,2 53388  53.2175 259.3381 0001454  93.4342 266.6816 15.08834103 84518,6917.898,95.438,540.769,538.758,0.0
53388.0,STARLINK-4522,PAYLOAD,2024-02-16 21:34:00,15.08834704,0.0001217,53.2166,259.0402,94.2719,265.8413,9.002e-05,1.145e-05,0.0,0 STARLINK-4522,1 53388U 22097A   24047.89861902  .00001145  00000-0  90020-4 0  9993,2 53388  53.2166 259.0402 0001217  94.2719 265.8413 15.08834704 85357,6917.897,95.438,540.603,538.92,0.0
53388.0,STARLINK-4522,PAYLOAD,2024-02-16 23:09:23,15.08836611,0.0001324,53.2166,258.7424,94.0737,266.0406,0.00010397,1.367e-05,0.0,0 STARLINK-4522,1 53388U 22097A   24047.96485809  .00001367  00000-0  10397-3 0  9993,2 53388  53.2166 258.7424 0001324  94.0737 266.0406 15.08836611 85369,6917.891,95.438,540.672,538.84,0.0
53388.0,STARLINK-4522,PAYLOAD,2024-02-17 21:24:47,15.08842095,0.0001225,53.2153,254.5786,89.4215,270.6918,0.00020301,2.945e-05,0.0,0 STARLINK-4522,1 53388U 22097A   24048.89221875  .00002945  00000-0  20301-3 0  9996,2 53388  53.2153 254.5786 0001225  89.4215 270.6918 15.08842095 85507,6917.874,95.437,540.586,538.892,0.0
53388.0,STARLINK-4522,PAYLOAD,2024-02-18 13:18:39,15.08836275,0.0001115,53.215,251.6064,89.7503,270.3617,0.00019334,2.79e-05,0.0,0 STARLINK-4522,1 53388U 22097A   24049.55462299  .00002790  00000-0  19334-3 0  9999,2 53388  53.2150 251.6064 0001115  89.7503 270.3617 15.08836275 85609,6917.892,95.438,540.528,538.985,0.0
53388.0,STARLINK-4522,PAYLOAD,2024-02-18 19:40:11,15.08841101,0.000124,53.215,250.417,84.2462,275.8671,8.2703e-05,1.029e-05,0.0,0 STARLINK-4522,1 53388U 22097A   24049.81958110  .00001029  00000-0  82703-4 0  9995,2 53388  53.2150 250.4170 0001240  84.2462 275.8671 15.08841101 84813,6917.877,95.437,540.6,538.884,0.0
53388.0,STARLINK-4522,PAYLOAD,2024-02-19 06:47:53,15.08844614,0.0001241,53.2158,248.3351,84.1222,275.9911,9.7884e-05,1.27e-05,0.0,0 STARLINK-4522,1 53388U 22097A   24050.28325864  .00001270  00000-0  97884-4 0  9996,2 53388  53.2158 248.3351 0001241  84.1222 275.9911 15.08844614 85712,6917.866,95.437,540.59,538.873,0.0
53388.0,STARLINK-4522,PAYLOAD,2024-02-19 22:41:44,15.08847685,0.0001253,53.216,245.3593,91.0432,269.0703,4.5084e-05,4.3e-06,0.0,0 STARLINK-4522,1 53388U 22097A   24050.94565562  .00000430  00000-0  45084-4 0  9992,2 53388  53.2160 245.3593 0001253  91.0432 269.0703 15.08847685 85818,6917.857,95.437,540.589,538.855,0.0
53388.0,STARLINK-4522,PAYLOAD,2024-02-20 13:00:13,15.08838556,0.0001397,53.2154,242.6822,96.9728,263.1423,5.6817e-05,6.16e-06,0.0,0 STARLINK-4522,1 53388U 22097A   24051.54182144  .00000616  00000-0  56817-4 0  9992,2 53388  53.2154 242.6822 0001397  96.9728 263.1423 15.08838556 85908,6917.885,95.438,540.716,538.783,0.0
53388.0,STARLINK-4522,PAYLOAD,2024-02-20 19:21:46,15.08833443,0.0001306,53.2158,241.4942,94.8621,265.252,0.00019503,2.817e-05,0.0,0 STARLINK-4522,1 53388U 22097A   24051.80678249  .00002817  00000-0  19503-3 0  9992,2 53388  53.2158 241.4942 0001306  94.8621 265.2520 15.08833443 85115,6917.9,95.438,540.669,538.862,0.0
53388.0,STARLINK-4522,PAYLOAD,2024-02-21 12:51:00,15.08838545,0.0001264,53.2159,238.224,94.0121,266.1016,5.1737e-05,5.36e-06,0.0,0 STARLINK-4522,1 53388U 22097A   24052.53542086  .00000536  00000-0  51737-4 0  9994,2 53388  53.2159 238.2240 0001264  94.0121 266.1016 15.08838545 86053,6917.885,95.438,540.624,538.875,0.0
53388.0,STARLINK-4522,PAYLOAD,2024-02-21 19:12:33,15.08834446,0.0001261,53.2162,237.034,93.7586,266.355,1.3765e-05,-6.9e-07,0.0,0 STARLINK-4522,1 53388U 22097A   24052.80038536 -.00000069  00000-0  13765-4 0  9995,2 53388  53.2162 237.0340 0001261  93.7586 266.3550 15.08834446 86098,6917.897,95.438,540.635,538.89,0.0
53388.0,STARLINK-4522,PAYLOAD,2024-02-22 12:41:47,15.08838976,0.0001138,53.2157,233.7624,91.5741,268.5381,4.7869e-05,4.74e-06,0.0,0 STARLINK-4522,1 53388U 22097A   24053.52902329  .00000474  00000-0  47869-4 0  9996,2 53388  53.2157 233.7624 0001138  91.5741 268.5381 15.08838976 85370,6917.884,95.438,540.536,538.961,0.0
53388.0,STARLINK-4522,PAYLOAD,2024-02-22 19:03:19,15.08844781,0.0001212,53.2162,232.5739,93.155,266.9581,9.6894e-05,1.255e-05,0.0,0 STARLINK-4522,1 53388U 22097A   24053.79397821  .00001255  00000-0  96894-4 0  9990,2 53388  53.2162 232.5739 0001212  93.1550 266.9581 15.08844781 86241,6917.866,95.437,540.569,538.892,0.0
53388.0,STARLINK-4522,PAYLOAD,2024-02-23 20:29:30,15.08835015,0.0001244,53.2162,227.8166,92.243,267.8705,0.00011604,1.559e-05,0.0,0 STARLINK-4522,1 53388U 22097A   24054.85382721  .00001559  00000-0  11604-3 0  9993,2 53388  53.2162 227.8166 0001244  92.2430 267.8705 15.08835015 85577,6917.896,95.438,540.621,538.9,0.0
53388.0,STARLINK-4522,PAYLOAD,2024-02-24 10:47:58,15.08846575,0.0001327,53.2167,225.1414,92.9957,267.1187,8.7601e-05,1.107e-05,0.0,0 STARLINK-4522,1 53388U 22097A   24055.44998165  .00001107  00000-0  87601-4 0  9994,2 53388  53.2167 225.1414 0001327  92.9957 267.1187 15.08846575 85662,6917.86,95.437,540.643,538.807,0.0
53388.0,STARLINK-4522,PAYLOAD,2024-02-25 04:17:12,15.088441,0.0001285,53.2158,221.8681,82.6914,277.4224,0.00018292,2.625e-05,0.0,0 STARLINK-4522,1 53388U 22097A   24056.17861992  .00002625  00000-0  18292-3 0  9997,2 53388  53.2158 221.8681 0001285  82.6914 277.4224 15.08844100 86606,6917.868,95.437,540.622,538.844,0.0
53388.0,STARLINK-4522,PAYLOAD,2024-02-25 18:35:40,15.08845838,0.0001311,53.2155,219.1923,81.5533,278.5608,9.5039e-05,1.225e-05,0.0,0 STARLINK-4522,1 53388U 22097A   24056.77477950  .00001225  00000-0  95039-4 0  9990,2 53388  53.2155 219.1923 0001311  81.5533 278.5608 15.08845838 85861,6917.863,95.437,540.634,538.821,0.0
53388.0,STARLINK-4522,PAYLOAD,2024-02-26 04:08:00,15.08841028,0.0001158,53.2149,217.4095,90.1873,269.9252,3.9034e-05,3.33e-06,0.0,0 STARLINK-4522,1 53388U 22097A   24057.17222287  .00000333  00000-0  39034-4 0  9998,2 53388  53.2149 217.4095 0001158  90.1873 269.9252 15.08841028 85920,6917.877,95.437,540.543,538.941,0.0
53388.0,STARLINK-4522,PAYLOAD,2024-02-26 16:51:05,15.08836095,0.0001445,53.2163,215.0297,83.281,276.8346,-3.5988e-05,-8.61e-06,0.0,0 STARLINK-4522,1 53388U 22097A   24057.70214952 -.00000861  00000-0 -35988-4 0  9999,2 53388  53.2163 215.0297 0001445  83.2810 276.8346 15.08836095 86006,6917.892,95.438,540.757,538.758,0.0
53388.0,STARLINK-4522,PAYLOAD,2024-02-27 13:31:06,15.08836657,0.0001114,53.2163,211.1622,93.7073,266.4046,4.9551e-05,5.01e-06,0.0,0 STARLINK-4522,1 53388U 22097A   24058.56326616  .00000501  00000-0  49551-4 0  9995,2 53388  53.2163 211.1622 0001114  93.7073 266.4046 15.08836657 86966,6917.891,95.438,540.526,538.985,0.0
53388.0,STARLINK-4522,PAYLOAD,2024-02-27 19:52:38,15.08844447,0.0001414,53.2174,209.9721,95.5571,264.5583,2.7235e-05,1.46e-06,0.0,0 STARLINK-4522,1 53388U 22097A   24058.82822265  .00000146  00000-0  27235-4 0  9995,2 53388  53.2174 209.9721 0001414  95.5571 264.5583 15.08844447 86173,6917.867,95.437,540.71,538.754,0.0
53388.0,STARLINK-4522,PAYLOAD,2024-02-28 13:21:53,15.08837133,0.0001432,53.2177,206.6992,106.0817,254.0333,0.00010156,1.329e-05,0.0,0 STARLINK-4522,1 53388U 22097A   24059.55686619  .00001329  00000-0  10156-3 0  9994,2 53388  53.2177 206.6992 0001432 106.0817 254.0333 15.08837133 86284,6917.889,95.438,540.745,538.764,0.0
53388.0,STARLINK-4522,PAYLOAD,2024-02-28 16:32:39,15.08837974,0.0001279,53.2169,206.1083,91.1452,268.9687,0.00012788,1.748e-05,0.0,0 STARLINK-4522,1 53388U 22097A   24059.68934631  .00001748  00000-0  12788-3 0  9996,2 53388  53.2169 206.1083 0001279  91.1452 268.9687 15.08837974 87133,6917.887,95.438,540.636,538.867,0.0
53388.0,STARLINK-4522,PAYLOAD,2024-02-29 13:12:41,15.0883706,0.0001184,53.2167,202.2446,96.961,263.1516,-1.9322e-05,-5.95e-06,0.0,0 STARLINK-4522,1 53388U 22097A   24060.55047476 -.00000595  00000-0 -19322-4 0  9999,2 53388  53.2167 202.2446 0001184  96.9610 263.1516 15.08837060 86431,6917.889,95.438,540.573,538.935,0.0
53388.0,STARLINK-4522,PAYLOAD,2024-02-29 14:48:04,15.08835787,0.0001191,53.2169,201.9479,89.9351,270.1777,-3.2082e-06,-3.39e-06,0.0,0 STARLINK-4522,1 53388U 22097A   24060.61671524 -.00000339  00000-0 -32082-5 0  9998,2 53388  53.2169 201.9479 0001191  89.9351 270.1777 15.08835787 87271,6917.893,95.438,540.582,538.934,0.0
53388.0,STARLINK-4522,PAYLOAD,2024-02-29 19:34:13,15.08840445,0.0001144,53.2165,201.0501,87.1402,272.9721,5.7618e-05,6.29e-06,0.0,0 STARLINK-4522,1 53388U 22097A   24060.81543019  .00000629  00000-0  57618-4 0  9998,2 53388  53.2165 201.0501 0001144  87.1402 272.9721 15.08840445 87309,6917.879,95.438,540.535,538.953,0.0
